CCSDS_OEM_VERS = 2.0  
CREATION_DATE  = 2026-05-08T15:37:02
ORIGINATOR     = ESOC/OPS-GFA                            
 
 



META_START
OBJECT_NAME          = LISA                                    
OBJECT_ID            = -1000                                   
CENTER_NAME          = SUN                     
REF_FRAME            = EME2000 
TIME_SYSTEM          = TCB
START_TIME           = 2036-12-23T00:00:30.346418            
STOP_TIME            = 2047-09-07T08:43:33.790304            
INTERPOLATION        = HERMITE                                 
INTERPOLATION_DEGREE = 7                                       
META_STOP

2046-04-17T21:11:00.762021    -1.49519677532659590e+08   -3.29484827153456211e+06   -2.07328275224491209e+06    8.92356845170728441e-01   -2.72600139545608684e+01   -1.20534141413990650e+01    5.93022813681434508e-06    1.30630780372509337e-07    8.22138101486191004e-08
2046-04-18T17:28:04.021339    -1.49438705071877897e+08   -5.28504479365234077e+06   -2.95321207133923285e+06    1.32533117500307718e+00   -2.72475913548137569e+01   -1.20461355298527888e+01    5.92809353699597638e-06    2.09604760236078623e-07    1.17135267171711855e-07
2046-04-19T13:45:07.280656    -1.49326122238978475e+08   -7.27412363297599554e+06   -3.83251678681064211e+06    1.75810349940437316e+00   -2.72294023004847610e+01   -1.20363072433629448e+01    5.92469541864077566e-06    2.88562677341077305e-07    1.52044412336434572e-07
2046-04-20T09:57:47.075165    -1.49182524149874777e+08   -9.25449607849436067e+06   -4.70784286710224114e+06    2.18902183271926543e+00   -2.72055453703514267e+01   -1.20239796905379315e+01    5.92005307507348562e-06    3.67202771164746160e-07    1.86807856038826820e-07
2046-04-21T06:10:26.869674    -1.49007585942893296e+08   -1.12329245828266423e+07   -5.58218000264892261e+06    2.61955675327106396e+00   -2.71759683130971084e+01   -1.20091237010962146e+01    5.91415634070604227e-06    4.45793050954428013e-07    2.21544096912400934e-07
2046-04-22T02:23:06.664183    -1.48801338861613631e+08   -1.32089931166213453e+07   -6.45534431210088916e+06    3.04961700750700659e+00   -2.71406753677242207e+01   -1.19917415260677291e+01    5.90700568126185866e-06    5.24316620355755261e-07    2.56245663351156804e-07
2046-04-22T22:35:46.458692    -1.48563820731950372e+08   -1.51822859713896569e+07   -7.32715208316027932e+06    3.47911138377279983e+00   -2.70996720033678287e+01   -1.19718359604176001e+01    5.89860178694052174e-06    6.02756563642618121e-07    2.90905076084811961e-07
2046-04-23T18:48:26.253202    -1.48295076007320493e+08   -1.71523878761926927e+07   -8.19741982437682711e+06    3.90794872949499261e+00   -2.70529649203982672e+01   -1.19494103434649901e+01    5.88894559492362216e-06    6.81095954020257182e-07    3.25514851932459055e-07
2046-04-24T15:01:06.047711    -1.47995155789171696e+08   -1.91188841015103161e+07   -9.06596431117394567e+06    4.33603796983661205e+00   -2.70005620509492914e+01   -1.19244685590425519e+01    5.87803830747873670e-06    7.59317861109002098e-07    3.60067507177971817e-07
2046-04-25T11:13:45.842220    -1.47664117827948332e+08   -2.10813605531113222e+07   -9.93260262737304345e+06    4.76328812751019370e+00   -2.69424725589313887e+01   -1.18970150354240083e+01    5.86588140566924351e-06    8.37405357611163360e-07    3.94555560568301928e-07
2046-04-26T07:26:25.636729    -1.47302026509569854e+08   -2.30394038587260842e+07   -1.07971522034756243e+07    5.18960834342824739e+00   -2.68787068395898316e+01   -1.18670547450473105e+01    5.85247665866299398e-06    9.15341525159869649e-07    4.28971535934089212e-07
2046-04-27T03:39:05.431238    -1.46908952832497358e+08   -2.49926014503225125e+07   -1.16594308529626820e+07    5.61490789787118061e+00   -2.68092765186668061e+01   -1.18345932040608339e+01    5.83782612865074084e-06    9.93109459351585986e-07    4.63307964433422905e-07
2046-04-27T23:51:45.225747    -1.46484974380462945e+08   -2.69405416447866559e+07   -1.25192568078709468e+07    6.03909623185269950e+00   -2.67341944512272285e+01   -1.17996364717200830e+01    5.82193217134952902e-06    1.07069227395911065e-06    4.97557386417206088e-07
2046-04-28T20:04:25.020258    -1.46030175295937836e+08   -2.88828137258085869e+07   -1.33764487549054604e+07    6.46208296836277363e+00   -2.66534747202076083e+01   -1.17621911496623355e+01    5.80479743213514145e-06    1.14807310433082134e-06    5.31712352918889766e-07
2046-04-29T16:17:04.814766    -1.45544646259413749e+08   -3.08190080297749490e+07   -1.42308258733480554e+07    6.88377793316813325e+00   -2.65671326347475016e+01   -1.17222643810867098e+01    5.78642483775722499e-06    1.22523510996858845e-06    5.65765426764993460e-07
2046-04-30T12:29:44.609275    -1.45028484479573250e+08   -3.27487160384688824e+07   -1.50822078760212529e+07    7.30409117485039072e+00   -2.64751847283629935e+01   -1.16798638498670897e+01    5.76681758366189392e-06    1.30216147629078240e-06    5.99709183309393834e-07
2046-05-01T08:42:24.403785    -1.44481793699424088e+08   -3.46715304813787788e+07   -1.59304150545670744e+07    7.72293298376173887e+00   -2.63776487570216922e+01   -1.16349977796253850e+01    5.74597911690628689e-06    1.37883541557682697e-06    6.33536210789720061e-07
2046-05-02T04:55:04.198294    -1.43904684223472983e+08   -3.65870454504160061e+07   -1.67752683303003982e+07    8.14021390957843494e+00   -2.62745436971787214e+01   -1.15876749327925594e+01    5.72391311472576354e-06    1.45524016709677412e-06    6.67239110307670145e-07
2046-05-03T01:07:43.992803    -1.43297272971013695e+08   -3.84948565298441276e+07   -1.76165893118962049e+07    8.55584477713182068e+00   -2.61658897438331515e+01   -1.15379046096849152e+01    5.70062345857285798e-06    1.53135899641569940e-06    7.00810495427965285e-07
2046-05-03T21:18:39.146736    -1.42660621858227193e+08   -4.03918346991523355e+07   -1.84529984107059129e+07    8.96914276644766062e+00   -2.60518764748642226e+01   -1.14857734749367069e+01    5.67615095238353220e-06    1.60706649699272923e-06    7.34195066301515346e-07
2046-05-04T17:29:34.300667    -1.41994008190409899e+08   -4.22803296790816560e+07   -1.92855319290091097e+07    9.38061867391068205e+00   -2.59323741277627171e+01   -1.14312220304731547e+01    5.65046727331883222e-06    1.68245573811985679e-06    7.67433870091380660e-07
2046-05-05T13:40:29.454600    -1.41297567564774066e+08   -4.41599435386514738e+07   -2.01140144208277911e+07    9.79018467929005176e+00   -2.58074064236390974e+01   -1.13742611307710337e+01    5.62357734907801653e-06    1.75751026534357263e-06    8.00519648798993068e-07
2046-05-06T09:51:24.608532    -1.40571441899595231e+08   -4.60302800703568682e+07   -2.09382712285479307e+07    1.01977533284224133e+01   -2.56769982778967147e+01   -1.13149021570661130e+01    5.59548633254494544e-06    1.83221365986585625e-06    8.33445161267335309e-07
2046-05-07T06:02:19.762464    -1.39815779447797090e+08   -4.78909449136907384e+07   -2.17581285376387462e+07    1.06032375503162815e+01   -2.55411757971441951e+01   -1.12531570159031009e+01    5.56619962145263870e-06    1.90654955188544308e-06    8.66203189256126764e-07
2046-05-08T02:13:14.916396    -1.39030734789729416e+08   -4.97415456608811915e+07   -2.25734134234052114e+07    1.10065506755300255e+01   -2.53999662752093762e+01   -1.11890381372769738e+01    5.53572287388813571e-06    1.98050163200796372e-06    8.98786542623703889e-07
2046-05-08T22:24:10.070329    -1.38216468809382409e+08   -5.15816919486761391e+07   -2.33839538914891258e+07    1.14076064555254231e+01   -2.52533981883943213e+01   -1.11225584724302280e+01    5.50406201964327571e-06    2.05405366072819337e-06    9.31188063617016998e-07
2046-05-09T18:35:05.224262    -1.37373148658285260e+08   -5.34109955399890989e+07   -2.41895789138259962e+07    1.18063190826947224e+01   -2.51015011901114740e+01   -1.10537314913708666e+01    5.47122326740278877e-06    2.12718947598160423e-06    9.63400630268494959e-07
2046-05-10T14:46:00.378193    -1.36500947711336672e+08   -5.52290703992196172e+07   -2.49901184617649131e+07    1.22026032107592108e+01   -2.49443061050411714e+01   -1.09825711801759720e+01    5.43721310778398618e-06    2.19989299877011824e-06    9.95417158901993755e-07
2046-05-11T10:56:55.532126    -1.35600045518814951e+08   -5.70355327650622874e+07   -2.57854035380585715e+07    1.25963739752371637e+01   -2.47818449229506257e+01   -1.09090920381456957e+01    5.40203831219848372e-06    2.27214823685177367e-06    1.02723060574311518e-06
2046-05-12T07:07:50.686058    -1.34670627758815467e+08   -5.88300012246179059e+07   -2.65752662094307020e+07    1.29875470136792224e+01   -2.46141507923145042e+01   -1.08333090748724707e+01    5.36570592760789706e-06    2.34393928651927367e-06    1.05883396764533874e-06
2046-05-13T03:18:45.839991    -1.33712886194362760e+08   -6.06120967926205546e+07   -2.73595396414281242e+07    1.33760384853690688e+01   -2.44412580138772988e+01   -1.07552378072903192e+01    5.32822326704135372e-06    2.41525033242100313e-06    1.09022028191077868e-06
2046-05-13T23:29:40.993923    -1.32727018639445513e+08   -6.23814429995942563e+07   -2.81380581372645237e+07    1.37617650901874100e+01   -2.42632020342975636e+01   -1.06748942567690523e+01    5.28959789601529924e-06    2.48606564547618245e-06    1.12138262522904146e-06
2046-05-14T19:40:36.147855    -1.31713228938221604e+08   -6.41376659927531034e+07   -2.89106571823632345e+07    1.41446440863371894e+01   -2.40800194400142189e+01   -1.05922949463182068e+01    5.24983761480651383e-06    2.55636957886026717e-06    1.15231411172346525e-06
2046-05-15T15:51:31.301787    -1.30671726961641118e+08   -6.58803946534584165e+07   -2.96771734963063300e+07    1.45245933066280042e+01   -2.38917479514750610e+01   -1.05074568979655627e+01    5.20895043654306057e-06    2.62614656205748714e-06    1.18300789010314402e-06
